1 00000U 18001Z   21091.00000000 +.00000145  00000-0 +32923-4 0 00017
2 00000  97.5931  67.1234 0001589 130.0124 325.3129 15.05490645918800
